[{"OBJECT_NAME":"ONEWEB-0574","OBJECT_ID":"2023-043T","EPOCH":"2026-03-09T13:48:57.505248","MEAN_MOTION":13.2182565,"ECCENTRICITY":0.0001436,"INCLINATION":87.9173,"RA_OF_ASC_NODE":263.8283,"ARG_OF_PERICENTER":91.5424,"MEAN_ANOMALY":268.5874,"EPHEMERIS_TYPE":0,"CLASSIFICATION_TYPE":"U","NORAD_CAT_ID":56063,"ELEMENT_SET_NO":999,"REV_AT_EPOCH":14511,"BSTAR":9.7251e-5,"MEAN_MOTION_DOT":5.3e-7,"MEAN_MOTION_DDOT":0},{"OBJECT_NAME":"SL-24 R\/B","OBJECT_ID":"2005-031C","EPOCH":"2026-03-09T21:58:22.545408","MEAN_MOTION":14.00823625,"ECCENTRICITY":0.04088783,"INCLINATION":97.7517,"RA_OF_ASC_NODE":97.814,"ARG_OF_PERICENTER":287.6404,"MEAN_ANOMALY":68.0517,"EPHEMERIS_TYPE":0,"CLASSIFICATION_TYPE":"U","NORAD_CAT_ID":28811,"ELEMENT_SET_NO":999,"REV_AT_EPOCH":4969,"BSTAR":6.1876883e-5,"MEAN_MOTION_DOT":1.45e-6,"MEAN_MOTION_DDOT":0}]
